[{"OBJECT_NAME":"STARLINK-6040","OBJECT_ID":"2023-078AU","EPOCH":"2026-03-09T21:18:16.576704","MEAN_MOTION":14.98329487,"ECCENTRICITY":0.00025315,"INCLINATION":70.001,"RA_OF_ASC_NODE":343.8081,"ARG_OF_PERICENTER":263.0396,"MEAN_ANOMALY":97.0475,"EPHEMERIS_TYPE":0,"CLASSIFICATION_TYPE":"U","NORAD_CAT_ID":56809,"ELEMENT_SET_NO":999,"REV_AT_EPOCH":15271,"BSTAR":-4.3575538e-5,"MEAN_MOTION_DOT":-6.13e-6,"MEAN_MOTION_DDOT":0},{"OBJECT_NAME":"OBJECT C","OBJECT_ID":"2024-110C","EPOCH":"2026-03-09T23:43:55.665408","MEAN_MOTION":14.9795015,"ECCENTRICITY":0.00127752,"INCLINATION":97.5516,"RA_OF_ASC_NODE":147.5124,"ARG_OF_PERICENTER":117.9593,"MEAN_ANOMALY":242.2925,"EPHEMERIS_TYPE":0,"CLASSIFICATION_TYPE":"U","NORAD_CAT_ID":60014,"ELEMENT_SET_NO":999,"REV_AT_EPOCH":8695,"BSTAR":0.00013340044,"MEAN_MOTION_DOT":1.519e-5,"MEAN_MOTION_DDOT":0}]
